STARLINK-4407           
1 53196U 22084H   26074.33335648  .00614832  16298-3  14617-2 0  9998
2 53196  97.6109 161.5098 0002339 319.2323 234.8396 15.96690971  6068
STARLINK-4057           
1 53269U 22086AD  26074.31110319  .00943942  44693-3  17109-2 0  9991
2 53269  53.2154 145.0619 0003758   3.8189 356.2871 16.00989524202241
STARLINK-4361           
1 53493U 22099AE  26074.33335648  .00741469  24435-3  17278-2 0  9999
2 53493  97.6441 214.9675 0001833 125.1312  61.2561 15.97079286  6013
STARLINK-4465           
1 53496U 22099AH  26074.33335648  .00309277  37927-4  97199-3 0  9991
2 53496  97.6372 221.7579 0001922  28.0855  70.3692 15.91382497  6066
STARLINK-4461           
1 53503U 22099AQ  26074.33335648  .00647685  18058-3  15856-2 0  9990
2 53503  97.6314 222.4268 0000558  67.7449 358.0318 15.96158546  5901
STARLINK-4469           
1 53657U 22105K   26074.33335648  .00508763  10502-3  14423-2 0  9996
2 53657  97.6258 340.7015 0002553 121.1756 262.4750 15.93375845  6061
STARLINK-5092           
1 55408U 23014T   26074.07484203  .00886183  44268-3  10119-2 0  9994
2 55408  69.9950  35.8142 0002657 266.2318  93.8594 16.08996866173236
STARLINK-6201           
1 56486U 23064AQ  26074.12037338  .01001490  67573-3  72444-3 0  9990
2 56486  69.9878  96.8765 0004424 272.5286  87.5427 16.15795317156881
OBJECT H                
1 57011U 23085H   26074.24379132  .01792828  26102-2  19495-2 0  9992
2 57011  97.4561 201.5782 0007193 278.1745  81.8723 16.10492220153462
OBJECT AF               
1 57033U 23085AF  26074.28477416  .00654310  18911-3  14454-2 0  9996
2 57033  97.4729 205.4639 0012212 291.5928  68.4047 15.97896738153675
SHIYAN-25 (SY-25)       
1 57047U 23087A   26073.09255134 -.00022753  21476-5 -40927-4 0  9992
2 57047  96.7274 134.2345 0013053 252.4808 107.5046 16.00964239159595
QIANKUN-1               
1 57422U 23103B   26074.11959598  .00242013  16681-5  26077-3 0  9999
2 57422  96.1911 125.3001 0045150 162.5628 197.7221 16.07743474152185
OBJECT B                
1 57425U 23104B   26074.30180970  .00491605  11024-3  86036-3 0  9992
2 57425  97.2686 163.5952 0006828 295.6284  64.4290 16.02090466148972
STARLINK-30504          
1 57980U 23151S   26073.71756741  .01083454  64216-3  14635-2 0  9995
2 57980  42.9742 173.9229 0021471  16.8252 343.3336 16.05173443138091
STARLINK-30559          
1 58039U 23156M   26074.05288863  .00654044  21943-3  90897-3 0  9992
2 58039  53.1323 131.4427 0014856   2.0698 358.0394 16.05170105136014
STARLINK-30513          
1 58071U 23158W   26074.02098969  .00147814  17978-4  21261-3 0  9998
2 58071  42.9763  47.9130 0025418 152.1585 208.0660 16.04051307137971
