[{"OBJECT_NAME":"STARLINK-4407","OBJECT_ID":"2022-084H","EPOCH":"2026-03-15T08:00:01.999872","MEAN_MOTION":15.96690971,"ECCENTRICITY":0.00023399,"INCLINATION":97.6109,"RA_OF_ASC_NODE":161.5098,"ARG_OF_PERICENTER":319.2323,"MEAN_ANOMALY":234.8396,"EPHEMERIS_TYPE":0,"CLASSIFICATION_TYPE":"U","NORAD_CAT_ID":53196,"ELEMENT_SET_NO":999,"REV_AT_EPOCH":606,"BSTAR":0.0014617029,"MEAN_MOTION_DOT":0.00614832,"MEAN_MOTION_DDOT":0.00016297578},{"OBJECT_NAME":"STARLINK-4057","OBJECT_ID":"2022-086AD","EPOCH":"2026-03-15T07:27:59.315616","MEAN_MOTION":16.00989524,"ECCENTRICITY":0.00037587,"INCLINATION":53.2154,"RA_OF_ASC_NODE":145.0619,"ARG_OF_PERICENTER":3.8189,"MEAN_ANOMALY":356.2871,"EPHEMERIS_TYPE":0,"CLASSIFICATION_TYPE":"U","NORAD_CAT_ID":53269,"ELEMENT_SET_NO":999,"REV_AT_EPOCH":20224,"BSTAR":0.0017108568,"MEAN_MOTION_DOT":0.00943942,"MEAN_MOTION_DDOT":0.00044693352},{"OBJECT_NAME":"STARLINK-4361","OBJECT_ID":"2022-099AE","EPOCH":"2026-03-15T08:00:01.999872","MEAN_MOTION":15.97079286,"ECCENTRICITY":0.00018336,"INCLINATION":97.6441,"RA_OF_ASC_NODE":214.9675,"ARG_OF_PERICENTER":125.1312,"MEAN_ANOMALY":61.2561,"EPHEMERIS_TYPE":0,"CLASSIFICATION_TYPE":"U","NORAD_CAT_ID":53493,"ELEMENT_SET_NO":999,"REV_AT_EPOCH":601,"BSTAR":0.0017278203,"MEAN_MOTION_DOT":0.00741469,"MEAN_MOTION_DDOT":0.00024435067},{"OBJECT_NAME":"STARLINK-4465","OBJECT_ID":"2022-099AH","EPOCH":"2026-03-15T08:00:01.999872","MEAN_MOTION":15.91382497,"ECCENTRICITY":0.00019228,"INCLINATION":97.6372,"RA_OF_ASC_NODE":221.7579,"ARG_OF_PERICENTER":28.0855,"MEAN_ANOMALY":70.3692,"EPHEMERIS_TYPE":0,"CLASSIFICATION_TYPE":"U","NORAD_CAT_ID":53496,"ELEMENT_SET_NO":999,"REV_AT_EPOCH":606,"BSTAR":0.0009719923,"MEAN_MOTION_DOT":0.00309277,"MEAN_MOTION_DDOT":3.7926913e-5},{"OBJECT_NAME":"STARLINK-4461","OBJECT_ID":"2022-099AQ","EPOCH":"2026-03-15T08:00:01.999872","MEAN_MOTION":15.96158546,"ECCENTRICITY":5.588e-5,"INCLINATION":97.6314,"RA_OF_ASC_NODE":222.4268,"ARG_OF_PERICENTER":67.7449,"MEAN_ANOMALY":358.0318,"EPHEMERIS_TYPE":0,"CLASSIFICATION_TYPE":"U","NORAD_CAT_ID":53503,"ELEMENT_SET_NO":999,"REV_AT_EPOCH":590,"BSTAR":0.0015855872,"MEAN_MOTION_DOT":0.00647685,"MEAN_MOTION_DDOT":0.0001805836},{"OBJECT_NAME":"STARLINK-4469","OBJECT_ID":"2022-105K","EPOCH":"2026-03-15T08:00:01.999872","MEAN_MOTION":15.93375845,"ECCENTRICITY":0.00025539,"INCLINATION":97.6258,"RA_OF_ASC_NODE":340.7015,"ARG_OF_PERICENTER":121.1756,"MEAN_ANOMALY":262.475,"EPHEMERIS_TYPE":0,"CLASSIFICATION_TYPE":"U","NORAD_CAT_ID":53657,"ELEMENT_SET_NO":999,"REV_AT_EPOCH":606,"BSTAR":0.0014422633,"MEAN_MOTION_DOT":0.00508763,"MEAN_MOTION_DDOT":0.00010501792},{"OBJECT_NAME":"STARLINK-5092","OBJECT_ID":"2023-014T","EPOCH":"2026-03-15T01:47:46.351392","MEAN_MOTION":16.08996866,"ECCENTRICITY":0.00026574,"INCLINATION":69.995,"RA_OF_ASC_NODE":35.8142,"ARG_OF_PERICENTER":266.2318,"MEAN_ANOMALY":93.8594,"EPHEMERIS_TYPE":0,"CLASSIFICATION_TYPE":"U","NORAD_CAT_ID":55408,"ELEMENT_SET_NO":999,"REV_AT_EPOCH":17323,"BSTAR":0.0010118651,"MEAN_MOTION_DOT":0.00886183,"MEAN_MOTION_DDOT":0.00044267754},{"OBJECT_NAME":"STARLINK-6201","OBJECT_ID":"2023-064AQ","EPOCH":"2026-03-15T02:53:20.260032","MEAN_MOTION":16.15795317,"ECCENTRICITY":0.00044241,"INCLINATION":69.9878,"RA_OF_ASC_NODE":96.8765,"ARG_OF_PERICENTER":272.5286,"MEAN_ANOMALY":87.5427,"EPHEMERIS_TYPE":0,"CLASSIFICATION_TYPE":"U","NORAD_CAT_ID":56486,"ELEMENT_SET_NO":999,"REV_AT_EPOCH":15688,"BSTAR":0.00072444271,"MEAN_MOTION_DOT":0.0100149,"MEAN_MOTION_DDOT":0.00067573076},{"OBJECT_NAME":"OBJECT H","OBJECT_ID":"2023-085H","EPOCH":"2026-03-15T05:51:03.570048","MEAN_MOTION":16.1049222,"ECCENTRICITY":0.00071939,"INCLINATION":97.4561,"RA_OF_ASC_NODE":201.5782,"ARG_OF_PERICENTER":278.1745,"MEAN_ANOMALY":81.8723,"EPHEMERIS_TYPE":0,"CLASSIFICATION_TYPE":"U","NORAD_CAT_ID":57011,"ELEMENT_SET_NO":999,"REV_AT_EPOCH":15346,"BSTAR":0.0019495261,"MEAN_MOTION_DOT":0.01792828,"MEAN_MOTION_DDOT":0.0026101891},{"OBJECT_NAME":"OBJECT AF","OBJECT_ID":"2023-085AF","EPOCH":"2026-03-15T06:50:04.487424","MEAN_MOTION":15.97896738,"ECCENTRICITY":0.00122128,"INCLINATION":97.4729,"RA_OF_ASC_NODE":205.4639,"ARG_OF_PERICENTER":291.5928,"MEAN_ANOMALY":68.4047,"EPHEMERIS_TYPE":0,"CLASSIFICATION_TYPE":"U","NORAD_CAT_ID":57033,"ELEMENT_SET_NO":999,"REV_AT_EPOCH":15367,"BSTAR":0.0014454245,"MEAN_MOTION_DOT":0.0065431,"MEAN_MOTION_DDOT":0.00018910891},{"OBJECT_NAME":"SHIYAN-25 (SY-25)","OBJECT_ID":"2023-087A","EPOCH":"2026-03-14T02:13:16.435776","MEAN_MOTION":16.00964239,"ECCENTRICITY":0.00130537,"INCLINATION":96.7274,"RA_OF_ASC_NODE":134.2345,"ARG_OF_PERICENTER":252.4808,"MEAN_ANOMALY":107.5046,"EPHEMERIS_TYPE":0,"CLASSIFICATION_TYPE":"U","NORAD_CAT_ID":57047,"ELEMENT_SET_NO":999,"REV_AT_EPOCH":15959,"BSTAR":-4.0927208e-5,"MEAN_MOTION_DOT":-0.00022753,"MEAN_MOTION_DDOT":2.147632e-6},{"OBJECT_NAME":"QIANKUN-1","OBJECT_ID":"2023-103B","EPOCH":"2026-03-15T02:52:13.092672","MEAN_MOTION":16.07743474,"ECCENTRICITY":0.00451507,"INCLINATION":96.1911,"RA_OF_ASC_NODE":125.3001,"ARG_OF_PERICENTER":162.5628,"MEAN_ANOMALY":197.7221,"EPHEMERIS_TYPE":0,"CLASSIFICATION_TYPE":"U","NORAD_CAT_ID":57422,"ELEMENT_SET_NO":999,"REV_AT_EPOCH":15218,"BSTAR":0.000260768,"MEAN_MOTION_DOT":0.00242013,"MEAN_MOTION_DDOT":1.668104e-6},{"OBJECT_NAME":"OBJECT B","OBJECT_ID":"2023-104B","EPOCH":"2026-03-15T07:14:36.358080","MEAN_MOTION":16.02090466,"ECCENTRICITY":0.0006828,"INCLINATION":97.2686,"RA_OF_ASC_NODE":163.5952,"ARG_OF_PERICENTER":295.6284,"MEAN_ANOMALY":64.429,"EPHEMERIS_TYPE":0,"CLASSIFICATION_TYPE":"U","NORAD_CAT_ID":57425,"ELEMENT_SET_NO":999,"REV_AT_EPOCH":14897,"BSTAR":0.00086035605,"MEAN_MOTION_DOT":0.00491605,"MEAN_MOTION_DDOT":0.00011023799},{"OBJECT_NAME":"STARLINK-30504","OBJECT_ID":"2023-151S","EPOCH":"2026-03-14T17:13:17.824224","MEAN_MOTION":16.05173443,"ECCENTRICITY":0.00214717,"INCLINATION":42.9742,"RA_OF_ASC_NODE":173.9229,"ARG_OF_PERICENTER":16.8252,"MEAN_ANOMALY":343.3336,"EPHEMERIS_TYPE":0,"CLASSIFICATION_TYPE":"U","NORAD_CAT_ID":57980,"ELEMENT_SET_NO":999,"REV_AT_EPOCH":13809,"BSTAR":0.0014635283,"MEAN_MOTION_DOT":0.01083454,"MEAN_MOTION_DDOT":0.000642157},{"OBJECT_NAME":"STARLINK-30559","OBJECT_ID":"2023-156M","EPOCH":"2026-03-15T01:16:09.577632","MEAN_MOTION":16.05170105,"ECCENTRICITY":0.00148563,"INCLINATION":53.1323,"RA_OF_ASC_NODE":131.4427,"ARG_OF_PERICENTER":2.0698,"MEAN_ANOMALY":358.0394,"EPHEMERIS_TYPE":0,"CLASSIFICATION_TYPE":"U","NORAD_CAT_ID":58039,"ELEMENT_SET_NO":999,"REV_AT_EPOCH":13601,"BSTAR":0.00090896928,"MEAN_MOTION_DOT":0.00654044,"MEAN_MOTION_DDOT":0.00021943274},{"OBJECT_NAME":"STARLINK-30513","OBJECT_ID":"2023-158W","EPOCH":"2026-03-15T00:30:13.509216","MEAN_MOTION":16.04051307,"ECCENTRICITY":0.0025418,"INCLINATION":42.9763,"RA_OF_ASC_NODE":47.913,"ARG_OF_PERICENTER":152.1585,"MEAN_ANOMALY":208.066,"EPHEMERIS_TYPE":0,"CLASSIFICATION_TYPE":"U","NORAD_CAT_ID":58071,"ELEMENT_SET_NO":999,"REV_AT_EPOCH":13797,"BSTAR":0.00021261002,"MEAN_MOTION_DOT":0.00147814,"MEAN_MOTION_DDOT":1.7977926e-5}]
